CELESTIS-02             
1 25160U 98007D   22309.68143707  .00000062  00000+0  85319-4 0  9997
2 25160 107.9832 191.1621 0063846 229.7413 139.8878 14.21659974282938
CELESTIS-03             
1 26034U 99070C   22310.14177291  .00027964  00000+0  11440-2 0  9999
2 26034  98.3067 330.6730 0009266  18.4956 341.6614 15.24269524242629
